IRIDIUM 119             
1 42959U 17061E   25261.02947566  .00000019  00000+0 -21360-6 0  9997
2 42959  86.3995 139.0443 0002060  92.7071 267.4360 14.34217707415801
IRIDIUM 107             
1 42960U 17061F   25261.04850505 -.00000341  00000+0 -12870-3 0  9999
2 42960  86.3996 139.0559 0002449  89.3105 270.8372 14.34218322415819
IRIDIUM 132             
1 42961U 17061G   25261.12461479  .00000011  00000+0 -31945-5 0  9996
2 42961  86.3997 139.0058 0002154  86.5968 273.5474 14.34217747415828
IRIDIUM 136             
1 42962U 17061H   25261.01679080 -.00000015  00000+0 -12388-4 0  9998
2 42962  86.3997 139.0561 0002133  90.2616 269.8824 14.34217570415828
IRIDIUM 139             
1 42963U 17061J   25261.02313311  .00000093  00000+0  26071-4 0  9990
2 42963  86.3997 139.1113 0002337  86.7865 273.3598 14.34218163415833
IRIDIUM 125             
1 42964U 17061K   25261.08021688  .00000039  00000+0  69018-5 0  9999
2 42964  86.3998 139.1436 0002342  98.0576 262.0886 14.34217864415858
IRIDIUM 135             
1 43070U 17083A   25260.98457117 -.00000019  00000+0 -14010-4 0  9991
2 43070  86.3908  75.8022 0001953  84.4742 275.6676 14.34217332405133
IRIDIUM 138             
1 43071U 17083B   25261.00994309  .00000139  00000+0  42715-4 0  9999
2 43071  86.3896  75.4500 0001933 103.0237 257.1174 14.34217588405122
